QIANFAN-65              
1 62795U 25016L   25293.62630288  .00000071  00000+0  90331-4 0  9996
2 62795  88.9722 108.5540 0015176 132.2649 227.9792 13.50972708 40078
QIANFAN-66              
1 62796U 25016M   25284.76742828  .00000126  00000+0  17597-3 0  9999
2 62796  88.9747 109.4302 0015725 152.1511 208.0485 13.50966984 38920
QIANFAN-67              
1 62797U 25016N   25293.58514965  .00000086  00000+0  11426-3 0  9999
2 62797  88.9732 108.5488 0016208 134.9439 225.3030 13.50969567 40082
QIANFAN-68              
1 62798U 25016P   25293.57693793  .00000077  00000+0  99661-4 0  9994
2 62798  88.9736 108.5929 0016286 133.3436 226.9075 13.50971916 40068
QIANFAN-69              
1 62799U 25016Q   25293.59344095  .00000078  00000+0  10235-3 0  9995
2 62799  88.9714 108.4720 0017016 134.4828 225.7718 13.50969301 40103
QIANFAN-70              
1 62800U 25016R   25293.60975252  .00000084  00000+0  11186-3 0  9998
2 62800  88.9735 108.5976 0016802 125.4360 234.8363 13.50971862 40063
QIANFAN-71              
1 62801U 25016S   25293.60573005  .00000074  00000+0  96132-4 0  9993
2 62801  88.9729 108.5807 0016866 137.7032 222.5424 13.50973057 40062
QIANFAN-72              
1 62802U 25016T   25274.29087208  .00000084  00000+0  11481-3 0  9997
2 62802  88.9730 110.6012 0018440 200.3911 159.6505 13.49486897 37447
